TOMORROW-S1             
1 60479U 24149M   26068.72470524  .00008620  00000+0  28856-3 0  9996
2 60479  97.3791 149.6044 0001819 207.2040 152.9106 15.31198362 86867
STARLINK-32793          
1 62874U 25022W   26068.46288376  .00035970  00000+0  12214-2 0  9999
2 62874  53.1580 130.8017 0001319  72.4699 287.6446 15.30182610 61867
